NORAD_CAT_ID,OBJECT_NAME,OBJECT_TYPE,EPOCH,MEAN_MOTION,ECCENTRICITY,INCLINATION,RA_OF_ASC_NODE,ARG_OF_PERICENTER,MEAN_ANOMALY,BSTAR,MEAN_MOTION_DOT,MEAN_MOTION_DDOT,TLE_LINE0,TLE_LINE1,TLE_LINE2,SEMIMAJOR_AXIS,PERIOD,APOGEE,PERIGEE,DECAYED
55935.0,STARLINK-5920,PAYLOAD,2023-03-22 18:00:00,15.95013415,0.0039574,69.9998,167.7473,162.76,298.7546,-0.0023163,-0.00975062,0.00029746,0 STARLINK-5920,1 55935U 23037X   23081.75001157 -.00975062  29746-3 -23163-2 0  9991,2 55935  69.9998 167.7473 0039574 162.7600 298.7546 15.95013415  1303,6666.414,90.281,314.661,261.897,0.0
55935.0,STARLINK-5920,PAYLOAD,2023-03-22 22:00:00,15.94712674,0.0038456,70.0,167.2613,163.3282,174.7958,-0.0024986,-0.01029438,0.0003278,0 STARLINK-5920,1 55935U 23037X   23081.91667824 -.01029438  32780-3 -24986-2 0  9992,2 55935  70.0000 167.2613 0038456 163.3282 174.7958 15.94712674  1304,6667.252,90.298,314.757,263.478,0.0
55935.0,STARLINK-5920,PAYLOAD,2023-03-23 01:06:14,15.94704779,0.0037639,69.9977,166.8833,162.0692,198.1855,-0.00059015,-0.00244168,2.4358e-05,0 STARLINK-5920,1 55935U 23037X   23082.04600316 -.00244168  24358-4 -59015-3 0  9993,2 55935  69.9977 166.8833 0037639 162.0692 198.1855 15.94704779  1343,6667.274,90.299,314.234,264.044,0.0
55935.0,STARLINK-5920,PAYLOAD,2023-03-23 14:00:01,15.93383992,0.0031877,70.0002,165.3187,164.7214,37.9921,-0.0026149,-0.00979821,0.00029514,0 STARLINK-5920,1 55935U 23037X   23082.58335648 -.00979821  29514-3 -26149-2 0  9995,2 55935  70.0002 165.3187 0031877 164.7214  37.9921 15.93383992  1431,6670.958,90.374,314.088,271.558,0.0
55935.0,STARLINK-5920,PAYLOAD,2023-03-24 17:00:11,15.91178109,0.0018639,69.9999,162.0494,173.915,356.1694,-0.0030037,-0.00970956,0.00028383,0 STARLINK-5920,1 55935U 23037X   23083.70846065 -.00970956  28383-3 -30037-2 0  9994,2 55935  69.9999 162.0494 0018639 173.9150 356.1694 15.91178109  1602,6677.122,90.499,311.432,286.542,0.0
55935.0,STARLINK-5920,PAYLOAD,2023-03-24 22:00:01,15.9079705,0.0017374,70.0,161.4447,176.7705,105.5777,-0.0032454,-0.01026173,0.00031322,0 STARLINK-5920,1 55935U 23037X   23083.91668981 -.01026173  31322-3 -32454-2 0  9992,2 55935  70.0000 161.4447 0017374 176.7705 105.5777 15.90797050  1307,6678.188,90.521,311.656,288.451,0.0
55935.0,STARLINK-5920,PAYLOAD,2023-03-25 06:00:00,15.90143628,0.0012758,70.0001,160.4792,185.8948,204.3414,-0.0033607,-0.01021382,0.00030853,0 STARLINK-5920,1 55935U 23037X   23084.25001157 -.01021382  30853-3 -33607-2 0  9992,2 55935  70.0001 160.4792 0012758 185.8948 204.3414 15.90143628  1695,6680.018,90.558,310.405,293.36,0.0
55935.0,STARLINK-5920,PAYLOAD,2023-03-25 14:00:01,15.89470137,0.0010865,70.0001,159.5145,195.6424,301.7741,-0.0033389,-0.00979186,0.00028349,0 STARLINK-5920,1 55935U 23037X   23084.58334491 -.00979186  28349-3 -33389-2 0  9995,2 55935  70.0001 159.5145 0010865 195.6424 301.7741 15.89470137  1748,6681.904,90.596,311.029,296.51,0.0
55935.0,STARLINK-5920,PAYLOAD,2023-03-25 22:00:00,15.88841352,0.0008911,69.9999,158.5496,213.3775,30.4209,-0.0036175,-0.01025915,0.00030715,0 STARLINK-5920,1 55935U 23037X   23084.91667824 -.01025915  30715-3 -36175-2 0  9990,2 55935  69.9999 158.5496 0008911 213.3775  30.4209 15.88841352  1795,6683.667,90.632,311.488,299.576,0.0
55935.0,STARLINK-5920,PAYLOAD,2023-03-26 06:00:00,15.88197169,0.0008513,69.9997,157.5867,235.0071,114.3961,-0.0037973,-0.01042547,0.00031448,0 STARLINK-5920,1 55935U 23037X   23085.25001157 -.01042547  31448-3 -37973-2 0  9990,2 55935  69.9997 157.5867 0008513 235.0071 114.3961 15.88197169  1856,6685.474,90.669,313.031,301.648,0.0
55935.0,STARLINK-5920,PAYLOAD,2023-03-26 22:00:01,15.86866511,0.0009176,69.9998,155.6632,265.7927,292.5561,-0.003861,-0.00903399,0.0,0 STARLINK-5920,1 55935U 23037X   23085.91668981 -.00903399  00000-0 -38610-2 0  9993,2 55935  69.9998 155.6632 0009176 265.7927 292.5561 15.86866511  1950,6689.211,90.745,317.214,304.938,0.0
55935.0,STARLINK-5920,PAYLOAD,2023-03-27 14:00:01,15.85572418,0.0007741,69.9999,153.7429,271.743,132.2754,-0.0041969,-0.0091866,0.0,0 STARLINK-5920,1 55935U 23037X   23086.58334491 -.00918660  00000-0 -41969-2 0  9991,2 55935  69.9999 153.7429 0007741 271.7430 132.2754 15.85572418  1308,6692.85,90.819,319.896,309.534,0.0
55935.0,STARLINK-5920,PAYLOAD,2023-03-27 22:00:00,15.84935212,0.0004115,70.0002,152.7844,278.2448,227.4628,-0.0044395,-0.00937299,0.0,0 STARLINK-5920,1 55935U 23037X   23086.91667824 -.00937299  00000-0 -44395-2 0  9992,2 55935  70.0002 152.7844 0004115 278.2448 227.4628 15.84935212  2110,6694.644,90.855,319.264,313.754,0.0
55935.0,STARLINK-5920,PAYLOAD,2023-03-28 14:00:01,15.83610917,0.0003675,70.0001,150.8701,270.2429,76.5197,-0.0045713,-0.00908486,0.0,0 STARLINK-5920,1 55935U 23037X   23087.58334491 -.00908486  00000-0 -45713-2 0  9998,2 55935  70.0001 150.8701 0003675 270.2429  76.5197 15.83610917  1306,6698.376,90.931,322.703,317.779,0.0
55935.0,STARLINK-5920,PAYLOAD,2023-03-28 22:00:00,15.8297115,0.0003678,69.9998,149.9135,281.2418,164.8657,-0.0048157,-0.00926496,0.0,0 STARLINK-5920,1 55935U 23037X   23087.91667824 -.00926496  00000-0 -48157-2 0  9990,2 55935  69.9998 149.9135 0003678 281.2418 164.8657 15.82971150  1301,6700.181,90.968,324.51,319.581,0.0
55935.0,STARLINK-5920,PAYLOAD,2023-03-29 02:00:01,15.82630466,0.0003707,70.0002,149.4364,277.4919,38.0032,-0.0047738,-0.00905954,0.0,0 STARLINK-5920,1 55935U 23037X   23088.08334491 -.00905954  00000-0 -47738-2 0  9990,2 55935  70.0002 149.4364 0003707 277.4919  38.0032 15.82630466  2307,6701.142,90.988,325.491,320.523,0.0
55935.0,STARLINK-5920,PAYLOAD,2023-03-29 14:00:01,15.81653792,0.0003583,70.0003,148.0049,270.8916,11.5732,-0.0050041,-0.00906961,0.0,0 STARLINK-5920,1 55935U 23037X   23088.58334491 -.00906961  00000-0 -50041-2 0  9995,2 55935  70.0003 148.0049 0003583 270.8916  11.5732 15.81653792  1307,6703.9,91.044,328.167,323.363,0.0
55935.0,STARLINK-5920,PAYLOAD,2023-03-29 22:00:00,15.80995574,0.0003726,69.9999,147.0518,281.0905,98.3798,-0.0051061,-0.00898509,0.0,0 STARLINK-5920,1 55935U 23037X   23088.91667824 -.00898509  00000-0 -51061-2 0  9992,2 55935  69.9999 147.0518 0003726 281.0905  98.3798 15.80995574  1300,6705.761,91.082,330.125,325.127,0.0
55935.0,STARLINK-5920,PAYLOAD,2023-03-30 00:00:00,15.80835052,0.00036,69.9999,146.8138,280.4227,213.1751,-0.0051648,-0.00901699,0.0,0 STARLINK-5920,1 55935U 23037X   23089.00001157 -.00901699  00000-0 -51648-2 0  9990,2 55935  69.9999 146.8138 0003600 280.4227 213.1751 15.80835052  2442,6706.215,91.091,330.494,325.666,0.0
55935.0,STARLINK-5920,PAYLOAD,2023-03-30 22:00:00,15.79045354,0.0003606,70.0001,144.1978,273.6229,32.1601,-0.005654,-0.00908565,0.0,0 STARLINK-5920,1 55935U 23037X   23089.91667824 -.00908565  00000-0 -56540-2 0  9994,2 55935  70.0001 144.1978 0003606 273.6229  32.1601 15.79045354  1307,6711.281,91.194,335.566,330.726,0.0
55935.0,STARLINK-5920,PAYLOAD,2023-03-31 22:00:00,15.77087286,0.0003688,70.0003,141.3521,284.3597,300.6979,-0.0061546,-0.00905849,0.0,0 STARLINK-5920,1 55935U 23037X   23090.91667824 -.00905849  00000-0 -61546-2 0  9990,2 55935  70.0003 141.3521 0003688 284.3597 300.6979 15.77087286  2747,6716.835,91.308,341.177,336.223,0.0
55935.0,STARLINK-5920,PAYLOAD,2023-04-01 14:00:01,15.75781128,0.0003681,69.9999,139.46,277.9813,129.3478,-0.006488,-0.00901636,0.0,0 STARLINK-5920,1 55935U 23037X   23091.58334491 -.00901636  00000-0 -64880-2 0  9999,2 55935  69.9999 139.4600 0003681 277.9813 129.3478 15.75781128  1301,6720.546,91.383,344.885,339.937,0.0
55935.0,STARLINK-5920,PAYLOAD,2023-04-01 22:00:00,15.75128657,0.000365,70.0002,138.5148,285.585,211.7066,-0.0066762,-0.00901565,0.0,0 STARLINK-5920,1 55935U 23037X   23091.91667824 -.00901565  00000-0 -66762-2 0  9997,2 55935  70.0002 138.5148 0003650 285.5850 211.7066 15.75128657  2906,6722.402,91.421,346.721,341.813,0.0
55935.0,STARLINK-5920,PAYLOAD,2023-04-02 14:00:01,15.73824587,0.0003677,70.0001,136.6282,279.1863,35.6826,-0.0070656,-0.00901514,0.0,0 STARLINK-5920,1 55935U 23037X   23092.58334491 -.00901514  00000-0 -70656-2 0  9993,2 55935  70.0001 136.6282 0003677 279.1863  35.6826 15.73824587  1308,6726.115,91.497,350.453,345.507,0.0
55935.0,STARLINK-5920,PAYLOAD,2023-04-02 22:00:00,15.73167159,0.0003841,70.0003,135.6858,287.014,115.4729,-0.0072064,-0.008946,0.0,0 STARLINK-5920,1 55935U 23037X   23092.91667824 -.00894600  00000-0 -72064-2 0  9991,2 55935  70.0003 135.6858 0003841 287.0140 115.4729 15.73167159  1301,6727.989,91.535,352.438,347.27,0.0
55935.0,STARLINK-5920,PAYLOAD,2023-04-03 14:00:01,15.71875966,0.0003523,69.9996,133.8047,277.7908,297.5745,-0.0077935,-0.00913285,0.0,0 STARLINK-5920,1 55935U 23037X   23093.58334491 -.00913285  00000-0 -77935-2 0  9999,2 55935  69.9996 133.8047 0003523 277.7908 297.5745 15.71875966  3160,6731.673,91.61,355.909,351.166,0.0
55935.0,STARLINK-5920,PAYLOAD,2023-04-03 22:00:00,15.7117388,0.000376,69.995,132.8586,267.3838,33.2644,-0.0072479,-0.00832676,0.0,0 STARLINK-5920,1 55935U 23037X   23093.91667824 -.00832676  00000-0 -72479-2 0  9997,2 55935  69.9950 132.8586 0003760 267.3838  33.2644 15.71173880  1300,6733.678,91.651,358.075,353.011,0.0
55935.0,STARLINK-5920,PAYLOAD,2023-04-04 14:00:01,15.69907418,0.0003636,69.9957,130.9819,274.6776,194.155,0.00020992,0.00025088,0.0,0 STARLINK-5920,1 55935U 23037X   23094.58334491  .00025088  00000-0  20992-3 0  9995,2 55935  69.9957 130.9819 0003636 274.6776 194.1550 15.69907418  3325,6737.299,91.725,361.614,356.714,0.0
55935.0,STARLINK-5920,PAYLOAD,2023-04-04 22:00:00,15.69885154,0.0003651,69.9965,130.0445,268.8057,283.3619,0.00070953,0.00085845,0.0,0 STARLINK-5920,1 55935U 23037X   23094.91667824  .00085845  00000-0  70953-3 0  9990,2 55935  69.9965 130.0445 0003651 268.8057 283.3619 15.69885154  1309,6737.363,91.726,361.687,356.768,0.0
